start=new Date('2021-08-30T00:00:00.000Z').valueOf();
sats=[{"ELEMENT_SET_NO":"999","OBJECT_ID":"2021-027AV","RA_OF_ASC_NODE":"36.7660","COUNTRY_CODE":"US","MEAN_MOTION":"15.06372192","PERIOD":"95.594","SITE":"AFETR","BSTAR":"-0.00015228000000","DECAY_DATE":null,"FILE":"3105271","MEAN_MOTION_DDOT":"0.0000000000000","RCS_SIZE":"LARGE","APOAPSIS":"548.383","INCLINATION":"53.0565","ARG_OF_PERICENTER":"109.9599","MEAN_ELEMENT_THEORY":"SGP4","REV_AT_EPOCH":"2321","SEMIMAJOR_AXIS":"6925.434","LAUNCH_DATE":"2021-04-07","REF_FRAME":"TEME","NORAD_CAT_ID":"48135","TIME_SYSTEM":"UTC","PERIAPSIS":"546.214","OBJECT_TYPE":"PAYLOAD","CENTER_NAME":"EARTH","CLASSIFICATION_TYPE":"U","ECCENTRICITY":"0.00015660","TLE_LINE1":"1 48135U 21027AV  21241.78969647 -.00002547  00000-0 -15228-3 0  9990","EPHEMERIS_TYPE":"0","MEAN_MOTION_DOT":"-0.00002547","MEAN_ANOMALY":"250.1559","OBJECT_NAME":"STARLINK-2478","EPOCH":"2021-08-29T18:57:09.775008","TLE_LINE2":"2 48135  53.0565  36.7660 0001566 109.9599 250.1559 15.06372192 23216","GP_ID":"183699916"},{"SITE":"AFETR","PERIOD":"95.592","MEAN_MOTION":"15.06395556","COUNTRY_CODE":"US","RA_OF_ASC_NODE":"31.5787","OBJECT_ID":"2021-027AW","ELEMENT_SET_NO":"999","ARG_OF_PERICENTER":"110.3259","INCLINATION":"53.0563","APOAPSIS":"548.471","RCS_SIZE":"LARGE","MEAN_MOTION_DDOT":"0.0000000000000","FILE":"3105271","DECAY_DATE":null,"BSTAR":"-0.00002086200000","ECCENTRICITY":"0.00017960","CLASSIFICATION_TYPE":"U","CENTER_NAME":"EARTH","OBJECT_TYPE":"PAYLOAD","PERIAPSIS":"545.983","NORAD_CAT_ID":"48136","TIME_SYSTEM":"UTC","REF_FRAME":"TEME","LAUNCH_DATE":"2021-04-07","SEMIMAJOR_AXIS":"6925.362","MEAN_ELEMENT_THEORY":"SGP4","REV_AT_EPOCH":"2329","TLE_LINE2":"2 48136  53.0563  31.5787 0001796 110.3259 249.7923 15.06395556 23298","GP_ID":"183701168","EPOCH":"2021-08-29T19:54:53.268480","OBJECT_NAME":"STARLINK-2479","MEAN_MOTION_DOT":"-0.00000592","MEAN_ANOMALY":"249.7923","EPHEMERIS_TYPE":"0","TLE_LINE1":"1 48136U 21027AW  21241.82978320 -.00000592  00000-0 -20862-4 0  9993"},{"ARG_OF_PERICENTER":"129.3968","APOAPSIS":"548.104","RCS_SIZE":"LARGE","INCLINATION":"53.0411","MEAN_MOTION_DDOT":"0.0000000000000","DECAY_DATE":null,"BSTAR":"0.00006659100000","FILE":"3105271","SITE":"AFETR","MEAN_MOTION":"15.06398598","COUNTRY_CODE":"US","PERIOD":"95.592","ELEMENT_SET_NO":"999","OBJECT_ID":"2021-027AX","RA_OF_ASC_NODE":"12.1309","TLE_LINE2":"2 48137  53.0411  12.1309 0001280 129.3968 230.7134 15.06398598 23553","EPOCH":"2021-08-29T17:22:15.607200","GP_ID":"183700918","OBJECT_NAME":"STARLINK-2480","EPHEMERIS_TYPE":"0","MEAN_MOTION_DOT":"0.00000711","MEAN_ANOMALY":"230.7134","TLE_LINE1":"1 48137U 21027AX  21241.72379175  .00000711  00000-0  66591-4 0  9996","ECCENTRICITY":"0.00012800","OBJECT_TYPE":"PAYLOAD","CLASSIFICATION_TYPE":"U","CENTER_NAME":"EARTH","REF_FRAME":"TEME","PERIAPSIS":"546.331","NORAD_CAT_ID":"48137","TIME_SYSTEM":"UTC","REV_AT_EPOCH":"2355","MEAN_ELEMENT_THEORY":"SGP4","LAUNCH_DATE":"2021-04-07","SEMIMAJOR_AXIS":"6925.353"},{"REF_FRAME":"TEME","NORAD_CAT_ID":"48138","TIME_SYSTEM":"UTC","PERIAPSIS":"546.060","REV_AT_EPOCH":"2330","MEAN_ELEMENT_THEORY":"SGP4","SEMIMAJOR_AXIS":"6925.337","LAUNCH_DATE":"2021-04-07","ECCENTRICITY":"0.00016490","OBJECT_TYPE":"PAYLOAD","CENTER_NAME":"EARTH","CLASSIFICATION_TYPE":"U","EPHEMERIS_TYPE":"0","MEAN_MOTION_DOT":"-0.00000008","MEAN_ANOMALY":"251.7512","TLE_LINE1":"1 48138U 21027AY  21241.88138325 -.00000008  00000-0  18386-4 0  9993","TLE_LINE2":"2 48138  53.0572  31.3528 0001649 108.3656 251.7512 15.06403613 23309","EPOCH":"2021-08-29T21:09:11.512800","GP_ID":"183699666","OBJECT_NAME":"STARLINK-2481","ELEMENT_SET_NO":"999","RA_OF_ASC_NODE":"31.3528","OBJECT_ID":"2021-027AY","SITE":"AFETR","MEAN_MOTION":"15.06403613","COUNTRY_CODE":"US","PERIOD":"95.592","MEAN_MOTION_DDOT":"0.0000000000000","BSTAR":"0.00001838600000","DECAY_DATE":null,"FILE":"3105271","ARG_OF_PERICENTER":"108.3656","RCS_SIZE":"LARGE","APOAPSIS":"548.344","INCLINATION":"53.0572"},{"SITE":"AFETR","MEAN_MOTION":"15.06398551","COUNTRY_CODE":"US","PERIOD":"95.592","ELEMENT_SET_NO":"999","RA_OF_ASC_NODE":"12.2860","OBJECT_ID":"2021-027AZ","ARG_OF_PERICENTER":"126.6663","APOAPSIS":"548.321","RCS_SIZE":"LARGE","INCLINATION":"53.0565","MEAN_MOTION_DDOT":"0.0000000000000","BSTAR":"0.00006250200000","DECAY_DATE":null,"FILE":"3105271","ECCENTRICITY":"0.00015920","OBJECT_TYPE":"PAYLOAD","CENTER_NAME":"EARTH","CLASSIFICATION_TYPE":"U","REF_FRAME":"TEME","NORAD_CAT_ID":"48139","TIME_SYSTEM":"UTC","PERIAPSIS":"546.115","REV_AT_EPOCH":"2355","MEAN_ELEMENT_THEORY":"SGP4","SEMIMAJOR_AXIS":"6925.353","LAUNCH_DATE":"2021-04-07","TLE_LINE2":"2 48139  53.0565  12.2860 0001592 126.6663 233.4472 15.06398551 23550","GP_ID":"183700417","EPOCH":"2021-08-29T16:09:18.164160","OBJECT_NAME":"STARLINK-2482","EPHEMERIS_TYPE":"0","MEAN_ANOMALY":"233.4472","MEAN_MOTION_DOT":"0.00000650","TLE_LINE1":"1 48139U 21027AZ  21241.67312690  .00000650  00000-0  62502-4 0  9991"},{"RCS_SIZE":"LARGE","APOAPSIS":"548.403","INCLINATION":"53.0566","ARG_OF_PERICENTER":"116.5631","BSTAR":"0.00016563000000","DECAY_DATE":null,"FILE":"3105271","MEAN_MOTION_DDOT":"0.0000000000000","MEAN_MOTION":"15.06407753","COUNTRY_CODE":"US","PERIOD":"95.592","SITE":"AFETR","ELEMENT_SET_NO":"999","RA_OF_ASC_NODE":"32.1297","OBJECT_ID":"2021-027BA","OBJECT_NAME":"STARLINK-2483","EPOCH":"2021-08-29T16:58:21.342144","TLE_LINE2":"2 48140  53.0566  32.1297 0001752 116.5631 243.5538 15.06407753 23278","GP_ID":"183700668","TLE_LINE1":"1 48140U 21027BA  21241.70719146  .00002187  00000-0  16563-3 0  9996","EPHEMERIS_TYPE":"0","MEAN_MOTION_DOT":"0.00002187","MEAN_ANOMALY":"243.5538","OBJECT_TYPE":"PAYLOAD","CENTER_NAME":"EARTH","CLASSIFICATION_TYPE":"U","ECCENTRICITY":"0.00017520","REV_AT_EPOCH":"2327","MEAN_ELEMENT_THEORY":"SGP4","SEMIMAJOR_AXIS":"6925.325","LAUNCH_DATE":"2021-04-07","REF_FRAME":"TEME","NORAD_CAT_ID":"48140","TIME_SYSTEM":"UTC","PERIAPSIS":"545.976"},{"ARG_OF_PERICENTER":"121.0990","APOAPSIS":"548.385","RCS_SIZE":"LARGE","INCLINATION":"53.0600","MEAN_MOTION_DDOT":"0.0000000000000","DECAY_DATE":null,"BSTAR":"-0.00000917350000","FILE":"3105271","SITE":"AFETR","MEAN_MOTION":"15.06400829","COUNTRY_CODE":"US","PERIOD":"95.592","ELEMENT_SET_NO":"999","RA_OF_ASC_NODE":"31.4376","OBJECT_ID":"2021-027BB","TLE_LINE2":"2 48141  53.0600  31.4376 0001695 121.0990 239.0165 15.06400829 23311","GP_ID":"183701419","EPOCH":"2021-08-29T20:42:39.428640","OBJECT_NAME":"STARLINK-2484","EPHEMERIS_TYPE":"0","MEAN_ANOMALY":"239.0165","MEAN_MOTION_DOT":"-0.00000418","TLE_LINE1":"1 48141U 21027BB  21241.86295635 -.00000418  00000-0 -91735-5 0  9999","ECCENTRICITY":"0.00016950","OBJECT_TYPE":"PAYLOAD","CLASSIFICATION_TYPE":"U","CENTER_NAME":"EARTH","REF_FRAME":"TEME","PERIAPSIS":"546.037","TIME_SYSTEM":"UTC","NORAD_CAT_ID":"48141","MEAN_ELEMENT_THEORY":"SGP4","REV_AT_EPOCH":"2331","LAUNCH_DATE":"2021-04-07","SEMIMAJOR_AXIS":"6925.346"},{"ARG_OF_PERICENTER":"136.7000","INCLINATION":"53.0585","RCS_SIZE":"LARGE","APOAPSIS":"548.131","MEAN_MOTION_DDOT":"0.0000000000000","FILE":"3105271","DECAY_DATE":null,"BSTAR":"0.00010591000000","SITE":"AFETR","PERIOD":"95.592","COUNTRY_CODE":"US","MEAN_MOTION":"15.06409125","RA_OF_ASC_NODE":"12.3071","OBJECT_ID":"2021-027BC","ELEMENT_SET_NO":"999","TLE_LINE2":"2 48142  53.0585  12.3071 0001365 136.7000 223.4097 15.06409125 23558","GP_ID":"183700167","EPOCH":"2021-08-29T16:04:00.086880","OBJECT_NAME":"STARLINK-2485","MEAN_MOTION_DOT":"0.00001297","MEAN_ANOMALY":"223.4097","EPHEMERIS_TYPE":"0","TLE_LINE1":"1 48142U 21027BC  21241.66944545  .00001297  00000-0  10591-3 0  9992","ECCENTRICITY":"0.00013650","CLASSIFICATION_TYPE":"U","CENTER_NAME":"EARTH","OBJECT_TYPE":"PAYLOAD","PERIAPSIS":"546.240","NORAD_CAT_ID":"48142","TIME_SYSTEM":"UTC","REF_FRAME":"TEME","LAUNCH_DATE":"2021-04-07","SEMIMAJOR_AXIS":"6925.321","REV_AT_EPOCH":"2355","MEAN_ELEMENT_THEORY":"SGP4"},{"INCLINATION":"53.0473","RCS_SIZE":"LARGE","APOAPSIS":"353.244","ARG_OF_PERICENTER":"356.8295","FILE":"3105271","BSTAR":"-0.00014521000000","DECAY_DATE":null,"MEAN_MOTION_DDOT":"0.0000000000000","PERIOD":"91.535","MEAN_MOTION":"15.73171948","COUNTRY_CODE":"US","SITE":"AFETR","OBJECT_ID":"2021-027BD","RA_OF_ASC_NODE":"344.5743","ELEMENT_SET_NO":"999","OBJECT_NAME":"STARLINK-2486","GP_ID":"183699917","TLE_LINE2":"2 48143  53.0473 344.5743 0005059 356.8295   3.2690 15.73171948 23945","EPOCH":"2021-08-29T18:06:51.689088","TLE_LINE1":"1 48143U 21027BD  21241.75476492 -.00020951  00000-0 -14521-3 0  9991","MEAN_ANOMALY":"3.2690","MEAN_MOTION_DOT":"-0.00020951","EPHEMERIS_TYPE":"0","CENTER_NAME":"EARTH","CLASSIFICATION_TYPE":"U","OBJECT_TYPE":"PAYLOAD","ECCENTRICITY":"0.00050590","SEMIMAJOR_AXIS":"6727.975","LAUNCH_DATE":"2021-04-07","REV_AT_EPOCH":"2394","MEAN_ELEMENT_THEORY":"SGP4","NORAD_CAT_ID":"48143","TIME_SYSTEM":"UTC","PERIAPSIS":"346.436","REF_FRAME":"TEME"},{"PERIOD":"95.592","COUNTRY_CODE":"US","MEAN_MOTION":"15.06402081","SITE":"AFETR","OBJECT_ID":"2021-027BE","RA_OF_ASC_NODE":"12.2748","ELEMENT_SET_NO":"999","INCLINATION":"53.0580","APOAPSIS":"548.234","RCS_SIZE":"LARGE","ARG_OF_PERICENTER":"133.0722","FILE":"3105271","DECAY_DATE":null,"BSTAR":"0.00007109500000","MEAN_MOTION_DDOT":"0.0000000000000","CLASSIFICATION_TYPE":"U","CENTER_NAME":"EARTH","OBJECT_TYPE":"PAYLOAD","ECCENTRICITY":"0.00014830","LAUNCH_DATE":"2021-04-07","SEMIMAJOR_AXIS":"6925.342","MEAN_ELEMENT_THEORY":"SGP4","REV_AT_EPOCH":"2354","PERIAPSIS":"546.180","NORAD_CAT_ID":"48144","TIME_SYSTEM":"UTC","REF_FRAME":"TEME","OBJECT_NAME":"STARLINK-2487","TLE_LINE2":"2 48144  53.0580  12.2748 0001483 133.0722 227.0391 15.06402081 23547","EPOCH":"2021-08-29T16:14:37.150368","GP_ID":"183701169","TLE_LINE1":"1 48144U 21027BE  21241.67681887  .00000778  00000-0  71095-4 0  9992","MEAN_ANOMALY":"227.0391","MEAN_MOTION_DOT":"0.00000778","EPHEMERIS_TYPE":"0"}];
